0 IRIDIUM 33 DEB
1 36029U 97051VL  13281.89526773  .00032432  00000-0  56247-2 0  5709
2 36029 086.4317 121.5599 0021340 003.2664 062.7323 14.67937077224949
0 IRIDIUM 33 DEB
1 36029U 97051VL  13283.52455660  .00026445  00000-0  45806-2 0  5714
2 36029 086.4319 120.8480 0021148 357.9739 032.7897 14.68027155225188
0 IRIDIUM 33 DEB
1 36029U 97051VL  13283.87169278  .00023941  00000-0  41478-2 0  5729
2 36029 086.4321 120.6960 0021066 357.0295 067.1321 14.68030381225234
0 IRIDIUM 33 DEB
1 36029U 97051VL  13285.84717714  .00021367  00000-0  36968-2 0  5731
2 36029 086.4315 119.8325 0020858 350.2068 067.6956 14.68105527225529
0 IRIDIUM 33 DEB
1 36029U 97051VL  13286.87092861  .00020084  00000-0  34727-2 0  5741
2 36029 086.4310 119.3845 0020702 346.9360 078.2324 14.68141119225671
0 IRIDIUM 33 DEB
1 36029U 97051VL  13287.82324309  .00031310  00000-0  54016-2 0  5750
2 36029 086.4306 118.9684 0020633 343.5974 071.6430 14.68187113225814
0 IRIDIUM 33 DEB
1 36029U 97051VL  13288.50032156  .00036053  00000-0  62097-2 0  5760
2 36029 086.4304 118.6720 0020566 341.3968 050.2551 14.68233416225910
0 IRIDIUM 33 DEB
1 36029U 97051VL  13289.79963082  .00035562  00000-0  61177-2 0  5776
2 36029 086.4301 118.1042 0020484 336.7033 078.3139 14.68291017226105
0 IRIDIUM 33 DEB
1 36029U 97051VL  13290.28954866  .00032872  00000-0  56544-2 0  5786
2 36029 086.4303 117.8907 0020455 334.9612 148.0286 14.68311619226170
0 IRIDIUM 33 DEB
1 36029U 97051VL  13290.82318410  .00026775  00000-0  46053-2 0  5795
2 36029 086.4305 117.6575 0020439 333.0874 088.8592 14.68345967226256
0 IRIDIUM 33 DEB
1 36029U 97051VL  13292.79821994  .00028133  00000-0  48284-2 0  5809
2 36029 086.4309 116.7938 0020359 326.3168 089.2984 14.68437341226545
0 IRIDIUM 33 DEB
1 36029U 97051VL  13293.97553330  .00029567  00000-0  50678-2 0  5819
2 36029 086.4308 116.2789 0020269 322.1523 193.2588 14.68488947226715
0 IRIDIUM 33 DEB
1 36029U 97051VL  13295.26460767  .00035334  00000-0  60438-2 0  5829
2 36029 086.4310 115.7150 0020194 317.6358 168.2797 14.68549766226908
